{
  "type": "FeatureCollection",
  "features": [
    {
      "type": "Feature",
      "properties": {
        "norad_id": 34350,
        "name": "IRIDIUM 33 DEB",
        "group": "iridium-33-debris",
        "lat": 76.31847382496025,
        "lon": 21.826065766937802,
        "alt_km": 732.4370151682278,
        "timestamp": "2025-12-04T03:47:54.927323+00:00",
        "meta_object_name": "IRIDIUM 33 DEB",
        "meta_object_id": "1997-051ES",
        "meta_epoch": "2025-12-03T02:46:10.970400",
        "meta_mean_motion": 14.45350997,
        "meta_eccentricity": 0.00218335,
        "meta_inclination": 86.3282,
        "meta_ra_of_asc_node": 6.9833,
        "meta_arg_of_pericenter": 165.5973,
        "meta_mean_anomaly": 248.6185,
        "meta_ephemeris_type": 0,
        "meta_classification_type": "U",
        "meta_norad_cat_id": 34350,
        "meta_element_set_no": 999,
        "meta_rev_at_epoch": 88154,
        "meta_bstar": 0.00041343011,
        "meta_mean_motion_dot": 1.476e-05,
        "meta_mean_motion_ddot": 0,
        "tle_line1": "1 34350U 97051ES  25337.11540475  .00001476  00000+0  41343-3 0  9999",
        "tle_line2": "2 34350  86.3282   6.9833 0021833 165.5973 248.6185 14.45350997881545"
      },
      "geometry": {
        "type": "Point",
        "coordinates": [
          21.826065766937802,
          76.31847382496025
        ]
      }
    },
    {
      "type": "Feature",
      "properties": {
        "norad_id": 34366,
        "name": "IRIDIUM 33 DEB",
        "group": "iridium-33-debris",
        "lat": 40.971712878443,
        "lon": -130.1147700749155,
        "alt_km": 696.1031982747409,
        "timestamp": "2025-12-04T03:47:54.927333+00:00",
        "meta_object_name": "IRIDIUM 33 DEB",
        "meta_object_id": "1997-051FJ",
        "meta_epoch": "2025-12-03T16:10:25.403232",
        "meta_mean_motion": 14.53916692,
        "meta_eccentricity": 0.0021768,
        "meta_inclination": 86.3709,
        "meta_ra_of_asc_node": 53.2552,
        "meta_arg_of_pericenter": 168.8,
        "meta_mean_anomaly": 316.5476,
        "meta_ephemeris_type": 0,
        "meta_classification_type": "U",
        "meta_norad_cat_id": 34366,
        "meta_element_set_no": 999,
        "meta_rev_at_epoch": 88050,
        "meta_bstar": 0.0018859,
        "meta_mean_motion_dot": 7.981e-05,
        "meta_mean_motion_ddot": 0,
        "tle_line1": "1 34366U 97051FJ  25337.67390513  .00007981  00000+0  18859-2 0  9995",
        "tle_line2": "2 34366  86.3709  53.2552 0021768 168.8000 316.5476 14.53916692880505"
      },
      "geometry": {
        "type": "Point",
        "coordinates": [
          -130.1147700749155,
          40.971712878443
        ]
      }
    },
    {
      "type": "Feature",
      "properties": {
        "norad_id": 34375,
        "name": "IRIDIUM 33 DEB",
        "group": "iridium-33-debris",
        "lat": 83.09564390014677,
        "lon": -142.8424149898979,
        "alt_km": 798.4369285608564,
        "timestamp": "2025-12-04T03:47:54.927344+00:00",
        "meta_object_name": "IRIDIUM 33 DEB",
        "meta_object_id": "1997-051FT",
        "meta_epoch": "2025-12-03T01:02:45.120192",
        "meta_mean_motion": 14.17964565,
        "meta_eccentricity": 0.01024686,
        "meta_inclination": 86.4333,
        "meta_ra_of_asc_node": 186.6042,
        "meta_arg_of_pericenter": 157.2608,
        "meta_mean_anomaly": 1.3107,
        "meta_ephemeris_type": 0,
        "meta_classification_type": "U",
        "meta_norad_cat_id": 34375,
        "meta_element_set_no": 999,
        "meta_rev_at_epoch": 86574,
        "meta_bstar": 0.00052219187,
        "meta_mean_motion_dot": 1.144e-05,
        "meta_mean_motion_ddot": 0,
        "tle_line1": "1 34375U 97051FT  25337.04357778  .00001144  00000+0  52219-3 0  9996",
        "tle_line2": "2 34375  86.4333 186.6042 0102468 157.2608   1.3107 14.17964565865748"
      },
      "geometry": {
        "type": "Point",
        "coordinates": [
          -142.8424149898979,
          83.09564390014677
        ]
      }
    },
    {
      "type": "Feature",
      "properties": {
        "norad_id": 34376,
        "name": "IRIDIUM 33 DEB",
        "group": "iridium-33-debris",
        "lat": 15.014092061141048,
        "lon": -170.59660871722411,
        "alt_km": 670.7288848026865,
        "timestamp": "2025-12-04T03:47:54.927354+00:00",
        "meta_object_name": "IRIDIUM 33 DEB",
        "meta_object_id": "1997-051FU",
        "meta_epoch": "2025-12-03T08:58:52.417920",
        "meta_mean_motion": 14.62344728,
        "meta_eccentricity": 0.0026089,
        "meta_inclination": 86.2996,
        "meta_ra_of_asc_node": 10.7501,
        "meta_arg_of_pericenter": 198.7208,
        "meta_mean_anomaly": 161.3047,
        "meta_ephemeris_type": 0,
        "meta_classification_type": "U",
        "meta_norad_cat_id": 34376,
        "meta_element_set_no": 999,
        "meta_rev_at_epoch": 87870,
        "meta_bstar": 0.0019889,
        "meta_mean_motion_dot": 0.00010121,
        "meta_mean_motion_ddot": 0,
        "tle_line1": "1 34376U 97051FU  25337.37421780  .00010121  00000+0  19889-2 0  9998",
        "tle_line2": "2 34376  86.2996  10.7501 0026089 198.7208 161.3047 14.62344728878702"
      },
      "geometry": {
        "type": "Point",
        "coordinates": [
          -170.59660871722411,
          15.014092061141048
        ]
      }
    },
    {
      "type": "Feature",
      "properties": {
        "norad_id": 34486,
        "name": "IRIDIUM 33 DEB",
        "group": "iridium-33-debris",
        "lat": 81.84072249602052,
        "lon": 42.07409389010052,
        "alt_km": 569.760943942094,
        "timestamp": "2025-12-04T03:47:54.927364+00:00",
        "meta_object_name": "IRIDIUM 33 DEB",
        "meta_object_id": "1997-051GB",
        "meta_epoch": "2025-12-03T10:02:24.253728",
        "meta_mean_motion": 14.95105578,
        "meta_eccentricity": 0.0012925,
        "meta_inclination": 86.3945,
        "meta_ra_of_asc_node": 16.3253,
        "meta_arg_of_pericenter": 143.3156,
        "meta_mean_anomaly": 279.4709,
        "meta_ephemeris_type": 0,
        "meta_classification_type": "U",
        "meta_norad_cat_id": 34486,
        "meta_element_set_no": 999,
        "meta_rev_at_epoch": 88847,
        "meta_bstar": 0.0028184,
        "meta_mean_motion_dot": 0.00031064,
        "meta_mean_motion_ddot": 0,
        "tle_line1": "1 34486U 97051GB  25337.41833627  .00031064  00000+0  28184-2 0  9999",
        "tle_line2": "2 34486  86.3945  16.3253 0012925 143.3156 279.4709 14.95105578888472"
      },
      "geometry": {
        "type": "Point",
        "coordinates": [
          42.07409389010052,
          81.84072249602052
        ]
      }
    },
    {
      "type": "Feature",
      "properties": {
        "norad_id": 34487,
        "name": "IRIDIUM 33 DEB",
        "group": "iridium-33-debris",
        "lat": -86.0166122204972,
        "lon": -50.57807674545972,
        "alt_km": 765.3474553889,
        "timestamp": "2025-12-04T03:47:54.927374+00:00",
        "meta_object_name": "IRIDIUM 33 DEB",
        "meta_object_id": "1997-051GC",
        "meta_epoch": "2025-12-03T10:12:00.081216",
        "meta_mean_motion": 14.43196495,
        "meta_eccentricity": 0.0031908,
        "meta_inclination": 86.3443,
        "meta_ra_of_asc_node": 16.3873,
        "meta_arg_of_pericenter": 157.9365,
        "meta_mean_anomaly": 266.0119,
        "meta_ephemeris_type": 0,
        "meta_classification_type": "U",
        "meta_norad_cat_id": 34487,
        "meta_element_set_no": 999,
        "meta_rev_at_epoch": 88114,
        "meta_bstar": 0.00029137,
        "meta_mean_motion_dot": 1.005e-05,
        "meta_mean_motion_ddot": 0,
        "tle_line1": "1 34487U 97051GC  25337.42500094  .00001005  00000+0  29137-3 0  9992",
        "tle_line2": "2 34487  86.3443  16.3873 0031908 157.9365 266.0119 14.43196495881144"
      },
      "geometry": {
        "type": "Point",
        "coordinates": [
          -50.57807674545972,
          -86.0166122204972
        ]
      }
    },
    {
      "type": "Feature",
      "properties": {
        "norad_id": 34488,
        "name": "IRIDIUM 33 DEB",
        "group": "iridium-33-debris",
        "lat": 32.44974546522338,
        "lon": 127.71197135817567,
        "alt_km": 484.0533543546844,
        "timestamp": "2025-12-04T03:47:54.927384+00:00",
        "meta_object_name": "IRIDIUM 33 DEB",
        "meta_object_id": "1997-051GD",
        "meta_epoch": "2025-12-03T16:08:28.294944",
        "meta_mean_motion": 15.26132536,
        "meta_eccentricity": 0.0015614,
        "meta_inclination": 86.3246,
        "meta_ra_of_asc_node": 310.2938,
        "meta_arg_of_pericenter": 65.1971,
        "meta_mean_anomaly": 295.0897,
        "meta_ephemeris_type": 0,
        "meta_classification_type": "U",
        "meta_norad_cat_id": 34488,
        "meta_element_set_no": 999,
        "meta_rev_at_epoch": 89101,
        "meta_bstar": 0.0060111,
        "meta_mean_motion_dot": 0.00158686,
        "meta_mean_motion_ddot": 0,
        "tle_line1": "1 34488U 97051GD  25337.67254971  .00158686  00000+0  60111-2 0  9994",
        "tle_line2": "2 34488  86.3246 310.2938 0015614  65.1971 295.0897 15.26132536891013"
      },
      "geometry": {
        "type": "Point",
        "coordinates": [
          127.71197135817567,
          32.44974546522338
        ]
      }
    }
  ]
}